STARLINK-35602          
1 66403U 25257Z   26068.69165558  .00038030  00000+0  12900-2 0  9994
2 66403  53.1580 217.0219 0000948  66.8442 293.2658 15.30189236 19739
GLOBAL-34               
1 68098U 26043A   26068.47466435  .00014018  00000+0  45822-3 0  9994
2 68098  42.0215  76.7399 0006884 289.2632  70.7460 15.31488019   538
